{"type":"FeatureCollection","features":[{"type":"Feature","properties":{},"geometry":{"type":"Polygon","coordinates":[[[-81.546954,35.766485],[-81.546417,35.767051],[-81.545699,35.767617],[-81.545774,35.767982],[-81.546632,35.768557],[-81.546686,35.768722],[-81.546589,35.768905],[-81.545742,35.769828],[-81.544905,35.769636],[-81.544068,35.769541],[-81.54307,35.77035],[-81.540624,35.769114],[-81.540388,35.77062],[-81.540613,35.771334],[-81.540581,35.771752],[-81.540838,35.77237],[-81.541804,35.772831],[-81.542298,35.773858],[-81.542813,35.774233],[-81.543725,35.774589],[-81.543295,35.777505],[-81.546128,35.777192],[-81.548166,35.775207],[-81.548188,35.774058],[-81.549389,35.77324],[-81.554389,35.772187],[-81.556503,35.771508],[-81.557114,35.771847],[-81.557468,35.772335],[-81.557382,35.772718],[-81.5575,35.773118],[-81.55808,35.773223],[-81.558917,35.77284],[-81.560676,35.771708],[-81.564088,35.771395],[-81.566384,35.770751],[-81.566448,35.769671],[-81.566792,35.769271],[-81.567178,35.76847],[-81.568015,35.768261],[-81.568658,35.767739],[-81.569066,35.768],[-81.569366,35.768452],[-81.570954,35.768661],[-81.570954,35.767094],[-81.569259,35.767007],[-81.57119,35.765144],[-81.570439,35.764552],[-81.56971,35.763264],[-81.566062,35.765353],[-81.565955,35.766729],[-81.565912,35.767704],[-81.564496,35.768278],[-81.564496,35.769271],[-81.561878,35.770385],[-81.561706,35.768069],[-81.559002,35.768244],[-81.558917,35.766781],[-81.5522,35.766659],[-81.551878,35.766224],[-81.551836,35.765719],[-81.554711,35.764518],[-81.554754,35.763316],[-81.552501,35.763647],[-81.551492,35.763038],[-81.549926,35.763159],[-81.549969,35.761645],[-81.547759,35.761497],[-81.548274,35.763595],[-81.547072,35.76457],[-81.546868,35.765057],[-81.547072,35.766006],[-81.546954,35.766485]]]}}]}